CCSDS_OMM_VERS = 2.0
CREATION_DATE  = 
ORIGINATOR     = 

OBJECT_NAME    = STARLINK-36621
OBJECT_ID      = 2026-016A
CENTER_NAME    = EARTH
REF_FRAME      = TEME
TIME_SYSTEM    = UTC
MEAN_ELEMENT_THEORY = SGP/SGP4

EPOCH          = 2026-02-23T10:23:29.467680
MEAN_MOTION    = 15.75270591
ECCENTRICITY   = .00026631
INCLINATION    = 97.2816
RA_OF_ASC_NODE = 114.1331
ARG_OF_PERICENTER = 104.2289
MEAN_ANOMALY   = 255.9272

EPHEMERIS_TYPE = 0
CLASSIFICATION_TYPE = U
NORAD_CAT_ID   = 67561
ELEMENT_SET_NO = 999
REV_AT_EPOCH   = 455
BSTAR          = .2815881E-2
MEAN_MOTION_DOT = .444008E-2
MEAN_MOTION_DDOT = 0

CCSDS_OMM_VERS = 2.0
CREATION_DATE  = 
ORIGINATOR     = 

OBJECT_NAME    = STARLINK-36398
OBJECT_ID      = 2026-016B
CENTER_NAME    = EARTH
REF_FRAME      = TEME
TIME_SYSTEM    = UTC
MEAN_ELEMENT_THEORY = SGP/SGP4

EPOCH          = 2026-02-23T02:56:44.951136
MEAN_MOTION    = 15.75234110
ECCENTRICITY   = .0001425
INCLINATION    = 97.2838
RA_OF_ASC_NODE = 113.7887
ARG_OF_PERICENTER = 11.6206
MEAN_ANOMALY   = 348.5092

EPHEMERIS_TYPE = 0
CLASSIFICATION_TYPE = U
NORAD_CAT_ID   = 67562
ELEMENT_SET_NO = 999
REV_AT_EPOCH   = 450
BSTAR          = .13284E-2
MEAN_MOTION_DOT = .203179E-2
MEAN_MOTION_DDOT = 0

CCSDS_OMM_VERS = 2.0
CREATION_DATE  = 
ORIGINATOR     = 

OBJECT_NAME    = STARLINK-36403
OBJECT_ID      = 2026-016C
CENTER_NAME    = EARTH
REF_FRAME      = TEME
TIME_SYSTEM    = UTC
MEAN_ELEMENT_THEORY = SGP/SGP4

EPOCH          = 2026-02-23T20:00:01.999008
MEAN_MOTION    = 15.75190352
ECCENTRICITY   = .0001618
INCLINATION    = 97.2853
RA_OF_ASC_NODE = 114.6528
ARG_OF_PERICENTER = 107.0358
MEAN_ANOMALY   = 227.9193

EPHEMERIS_TYPE = 0
CLASSIFICATION_TYPE = U
NORAD_CAT_ID   = 67563
ELEMENT_SET_NO = 999
REV_AT_EPOCH   = 592
BSTAR          = .17974E-3
MEAN_MOTION_DOT = .26765E-3
MEAN_MOTION_DDOT = 0

CCSDS_OMM_VERS = 2.0
CREATION_DATE  = 
ORIGINATOR     = 

OBJECT_NAME    = STARLINK-36593
OBJECT_ID      = 2026-016D
CENTER_NAME    = EARTH
REF_FRAME      = TEME
TIME_SYSTEM    = UTC
MEAN_ELEMENT_THEORY = SGP/SGP4

EPOCH          = 2026-02-23T14:09:08.917920
MEAN_MOTION    = 15.75228816
ECCENTRICITY   = .0001811
INCLINATION    = 97.2841
RA_OF_ASC_NODE = 114.3813
ARG_OF_PERICENTER = 355.1475
MEAN_ANOMALY   = 4.9772

EPHEMERIS_TYPE = 0
CLASSIFICATION_TYPE = U
NORAD_CAT_ID   = 67564
ELEMENT_SET_NO = 999
REV_AT_EPOCH   = 458
BSTAR          = .18826E-2
MEAN_MOTION_DOT = .290942E-2
MEAN_MOTION_DDOT = 0

CCSDS_OMM_VERS = 2.0
CREATION_DATE  = 
ORIGINATOR     = 

OBJECT_NAME    = STARLINK-35725
OBJECT_ID      = 2026-016E
CENTER_NAME    = EARTH
REF_FRAME      = TEME
TIME_SYSTEM    = UTC
MEAN_ELEMENT_THEORY = SGP/SGP4

EPOCH          = 2026-02-23T17:43:06.575520
MEAN_MOTION    = 15.75172958
ECCENTRICITY   = .0001117
INCLINATION    = 97.2839
RA_OF_ASC_NODE = 114.4842
ARG_OF_PERICENTER = 118.5724
MEAN_ANOMALY   = 241.5654

EPHEMERIS_TYPE = 0
CLASSIFICATION_TYPE = U
NORAD_CAT_ID   = 67565
ELEMENT_SET_NO = 999
REV_AT_EPOCH   = 460
BSTAR          = .19953E-2
MEAN_MOTION_DOT = .30826E-2
MEAN_MOTION_DDOT = 0

CCSDS_OMM_VERS = 2.0
CREATION_DATE  = 
ORIGINATOR     = 

OBJECT_NAME    = STARLINK-36394
OBJECT_ID      = 2026-016F
CENTER_NAME    = EARTH
REF_FRAME      = TEME
TIME_SYSTEM    = UTC
MEAN_ELEMENT_THEORY = SGP/SGP4

EPOCH          = 2026-02-23T10:08:13.471296
MEAN_MOTION    = 15.75306636
ECCENTRICITY   = .00018298
INCLINATION    = 97.2853
RA_OF_ASC_NODE = 114.1454
ARG_OF_PERICENTER = 112.3194
MEAN_ANOMALY   = 247.8265

EPHEMERIS_TYPE = 0
CLASSIFICATION_TYPE = U
NORAD_CAT_ID   = 67566
ELEMENT_SET_NO = 999
REV_AT_EPOCH   = 455
BSTAR          = .17640954E-2
MEAN_MOTION_DOT = .272956E-2
MEAN_MOTION_DDOT = 0

CCSDS_OMM_VERS = 2.0
CREATION_DATE  = 
ORIGINATOR     = 

OBJECT_NAME    = STARLINK-36352
OBJECT_ID      = 2026-016G
CENTER_NAME    = EARTH
REF_FRAME      = TEME
TIME_SYSTEM    = UTC
MEAN_ELEMENT_THEORY = SGP/SGP4

EPOCH          = 2026-02-23T20:00:01.999008
MEAN_MOTION    = 15.75180102
ECCENTRICITY   = .0000704
INCLINATION    = 97.2855
RA_OF_ASC_NODE = 114.6647
ARG_OF_PERICENTER = 101.7041
MEAN_ANOMALY   = 267.2611

EPHEMERIS_TYPE = 0
CLASSIFICATION_TYPE = U
NORAD_CAT_ID   = 67567
ELEMENT_SET_NO = 999
REV_AT_EPOCH   = 582
BSTAR          = .14536E-3
MEAN_MOTION_DOT = .21596E-3
MEAN_MOTION_DDOT = 0

CCSDS_OMM_VERS = 2.0
CREATION_DATE  = 
ORIGINATOR     = 

OBJECT_NAME    = STARLINK-36435
OBJECT_ID      = 2026-016H
CENTER_NAME    = EARTH
REF_FRAME      = TEME
TIME_SYSTEM    = UTC
MEAN_ELEMENT_THEORY = SGP/SGP4

EPOCH          = 2026-02-22T14:50:09.880224
MEAN_MOTION    = 15.80747366
ECCENTRICITY   = .0004047
INCLINATION    = 97.2845
RA_OF_ASC_NODE = 113.4031
ARG_OF_PERICENTER = 339.2977
MEAN_ANOMALY   = 20.8126

EPHEMERIS_TYPE = 0
CLASSIFICATION_TYPE = U
NORAD_CAT_ID   = 67568
ELEMENT_SET_NO = 999
REV_AT_EPOCH   = 443
BSTAR          = .2616E-2
MEAN_MOTION_DOT = .531051E-2
MEAN_MOTION_DDOT = 0

CCSDS_OMM_VERS = 2.0
CREATION_DATE  = 
ORIGINATOR     = 

OBJECT_NAME    = STARLINK-36575
OBJECT_ID      = 2026-016J
CENTER_NAME    = EARTH
REF_FRAME      = TEME
TIME_SYSTEM    = UTC
MEAN_ELEMENT_THEORY = SGP/SGP4

EPOCH          = 2026-02-23T15:06:44.809056
MEAN_MOTION    = 15.81071454
ECCENTRICITY   = .0001665
INCLINATION    = 97.2833
RA_OF_ASC_NODE = 114.4802
ARG_OF_PERICENTER = 70.9909
MEAN_ANOMALY   = 289.1539

EPHEMERIS_TYPE = 0
CLASSIFICATION_TYPE = U
NORAD_CAT_ID   = 67569
ELEMENT_SET_NO = 999
REV_AT_EPOCH   = 459
BSTAR          = .33703E-2
MEAN_MOTION_DOT = .708938E-2
MEAN_MOTION_DDOT = 0

CCSDS_OMM_VERS = 2.0
CREATION_DATE  = 
ORIGINATOR     = 

OBJECT_NAME    = STARLINK-36562
OBJECT_ID      = 2026-016K
CENTER_NAME    = EARTH
REF_FRAME      = TEME
TIME_SYSTEM    = UTC
MEAN_ELEMENT_THEORY = SGP/SGP4

EPOCH          = 2026-02-23T20:00:01.999008
MEAN_MOTION    = 15.75270323
ECCENTRICITY   = .0001343
INCLINATION    = 97.2850
RA_OF_ASC_NODE = 114.6694
ARG_OF_PERICENTER = 81.6901
MEAN_ANOMALY   = 297.2440

EPHEMERIS_TYPE = 0
CLASSIFICATION_TYPE = U
NORAD_CAT_ID   = 67570
ELEMENT_SET_NO = 999
REV_AT_EPOCH   = 582
BSTAR          = -.11985E-2
MEAN_MOTION_DOT = -.17588E-2
MEAN_MOTION_DDOT = 0

CCSDS_OMM_VERS = 2.0
CREATION_DATE  = 
ORIGINATOR     = 

OBJECT_NAME    = STARLINK-36578
OBJECT_ID      = 2026-016L
CENTER_NAME    = EARTH
REF_FRAME      = TEME
TIME_SYSTEM    = UTC
MEAN_ELEMENT_THEORY = SGP/SGP4

EPOCH          = 2026-02-23T02:33:52.833600
MEAN_MOTION    = 15.75271868
ECCENTRICITY   = .0001286
INCLINATION    = 97.2844
RA_OF_ASC_NODE = 113.8106
ARG_OF_PERICENTER = 112.4426
MEAN_ANOMALY   = 247.6975

EPHEMERIS_TYPE = 0
CLASSIFICATION_TYPE = U
NORAD_CAT_ID   = 67571
ELEMENT_SET_NO = 999
REV_AT_EPOCH   = 450
BSTAR          = .15406E-2
MEAN_MOTION_DOT = .236988E-2
MEAN_MOTION_DDOT = 0

CCSDS_OMM_VERS = 2.0
CREATION_DATE  = 
ORIGINATOR     = 

OBJECT_NAME    = STARLINK-36350
OBJECT_ID      = 2026-016M
CENTER_NAME    = EARTH
REF_FRAME      = TEME
TIME_SYSTEM    = UTC
MEAN_ELEMENT_THEORY = SGP/SGP4

EPOCH          = 2026-02-23T14:34:33.190176
MEAN_MOTION    = 15.75341044
ECCENTRICITY   = .0001296
INCLINATION    = 97.2840
RA_OF_ASC_NODE = 114.3531
ARG_OF_PERICENTER = 306.3934
MEAN_ANOMALY   = 53.7211

EPHEMERIS_TYPE = 0
CLASSIFICATION_TYPE = U
NORAD_CAT_ID   = 67572
ELEMENT_SET_NO = 999
REV_AT_EPOCH   = 458
BSTAR          = .23236E-2
MEAN_MOTION_DOT = .364015E-2
MEAN_MOTION_DDOT = 0

